NORAD_CAT_ID,OBJECT_NAME,OBJECT_TYPE,EPOCH,MEAN_MOTION,ECCENTRICITY,INCLINATION,RA_OF_ASC_NODE,ARG_OF_PERICENTER,MEAN_ANOMALY,BSTAR,MEAN_MOTION_DOT,MEAN_MOTION_DDOT,TLE_LINE0,TLE_LINE1,TLE_LINE2,SEMIMAJOR_AXIS,PERIOD,APOGEE,PERIGEE,DECAYED
54805.0,STARLINK-5417,PAYLOAD,2023-08-13 14:30:13,15.08830991,0.0001001,53.2184,284.5482,91.9124,268.1982,-6.1673e-06,-3.86e-06,0.0,0 STARLINK-5417,1 54805U 22175AZ  23225.60432043 -.00000386  00000-0 -61673-5 0  9992,2 54805  53.2184 284.5482 0001001  91.9124 268.1982 15.08830991 36209,6917.908,95.438,540.465,539.08,0.0
54805.0,STARLINK-5417,PAYLOAD,2023-08-13 20:51:45,15.08841469,0.0001044,53.219,283.3591,81.4036,278.7074,-8.1298e-05,-1.581e-05,0.0,0 STARLINK-5417,1 54805U 22175AZ  23225.86927741 -.00001581  00000-0 -81298-4 0  9996,2 54805  53.2190 283.3591 0001044  81.4036 278.7074 15.08841469 36242,6917.876,95.437,540.463,539.019,0.0
54805.0,STARLINK-5417,PAYLOAD,2023-08-14 09:34:51,15.08809487,0.0001083,53.2187,280.98,81.3282,278.7833,0.00033546,5.051e-05,0.0,0 STARLINK-5417,1 54805U 22175AZ  23226.39920390  .00005051  00000-0  33546-3 0  9994,2 54805  53.2187 280.9800 0001083  81.3282 278.7833 15.08809487 36325,6917.974,95.439,540.588,539.089,0.0
54805.0,STARLINK-5417,PAYLOAD,2023-08-14 20:42:32,15.08828558,9.13e-05,53.2171,278.8998,93.621,266.4886,0.0001261,1.719e-05,0.0,0 STARLINK-5417,1 54805U 22175AZ  23226.86288095  .00001719  00000-0  12610-3 0  9991,2 54805  53.2171 278.8998 0000913  93.6210 266.4886 15.08828558 36399,6917.915,95.438,540.412,539.149,0.0
54805.0,STARLINK-5417,PAYLOAD,2023-08-15 09:25:37,15.08842015,8.74e-05,53.2165,276.5217,81.844,278.2652,5.8557e-05,6.44e-06,0.0,0 STARLINK-5417,1 54805U 22175AZ  23227.39279429  .00000644  00000-0  58557-4 0  9998,2 54805  53.2165 276.5217 0000874  81.8440 278.2652 15.08842015 36476,6917.874,95.437,540.344,539.135,0.0
54805.0,STARLINK-5417,PAYLOAD,2023-08-16 07:41:01,15.08835626,8.99e-05,53.2165,272.3585,80.8274,279.282,6.3026e-06,-1.87e-06,0.0,0 STARLINK-5417,1 54805U 22175AZ  23228.32015962 -.00000187  00000-0  63026-5 0  9993,2 54805  53.2165 272.3585 0000899  80.8274 279.2820 15.08835626 36613,6917.894,95.438,540.381,539.137,0.0
54805.0,STARLINK-5417,PAYLOAD,2023-08-16 20:24:06,15.08842389,8.87e-05,53.2164,269.9798,80.3865,279.7228,1.0553e-05,-1.2e-06,0.0,0 STARLINK-5417,1 54805U 22175AZ  23228.85007464 -.00000120  00000-0  10553-4 0  9992,2 54805  53.2164 269.9798 0000887  80.3865 279.7228 15.08842389 36697,6917.873,95.437,540.352,539.124,0.0
54805.0,STARLINK-5417,PAYLOAD,2023-08-18 02:36:26,15.08833022,0.0001364,53.2159,264.3307,66.7819,293.3317,1.2793e-05,-8.4e-07,0.0,0 STARLINK-5417,1 54805U 22175AZ  23230.10863982 -.00000084  00000-0  12793-4 0  9995,2 54805  53.2159 264.3307 0001364  66.7819 293.3317 15.08833022 36880,6917.902,95.438,540.71,538.823,0.0
54805.0,STARLINK-5417,PAYLOAD,2023-08-19 08:48:45,15.08838922,0.000106,53.2166,258.6786,96.9272,263.1841,-2.6093e-05,-7.03e-06,0.0,0 STARLINK-5417,1 54805U 22175AZ  23231.36719767 -.00000703  00000-0 -26093-4 0  9992,2 54805  53.2166 258.6786 0001060  96.9272 263.1841 15.08838922 37079,6917.884,95.438,540.482,539.015,0.0
54805.0,STARLINK-5417,PAYLOAD,2023-08-20 02:18:00,15.08829039,0.0001097,53.2166,255.4067,98.6356,261.4761,-1.2025e-05,-4.79e-06,0.0,0 STARLINK-5417,1 54805U 22175AZ  23232.09584453 -.00000479  00000-0 -12025-4 0  9995,2 54805  53.2166 255.4067 0001097  98.6356 261.4761 15.08829039 37181,6917.914,95.438,540.538,539.02,0.0
54805.0,STARLINK-5417,PAYLOAD,2023-08-20 13:25:42,15.08836869,0.0001054,53.2169,253.3259,91.3002,268.811,9.7277e-06,-1.33e-06,0.0,0 STARLINK-5417,1 54805U 22175AZ  23232.55952065 -.00000133  00000-0  97277-5 0  9993,2 54805  53.2169 253.3259 0001054  91.3002 268.8110 15.08836869 37251,6917.89,95.438,540.484,539.026,0.0
54805.0,STARLINK-5417,PAYLOAD,2023-08-21 00:33:25,15.08830902,0.0001131,53.2163,251.245,93.5743,266.5379,-2.2349e-05,-6.43e-06,0.0,0 STARLINK-5417,1 54805U 22175AZ  23233.02320711 -.00000643  00000-0 -22349-4 0  9997,2 54805  53.2163 251.2450 0001131  93.5743 266.5379 15.08830902 37329,6917.908,95.438,540.556,538.991,0.0
54805.0,STARLINK-5417,PAYLOAD,2023-08-21 11:41:06,15.0885533,0.0001289,53.2161,249.1645,118.6774,241.4348,-0.00023422,-4.015e-05,0.0,0 STARLINK-5417,1 54805U 22175AZ  23233.48688015 -.00004015  00000-0 -23422-3 0  9990,2 54805  53.2161 249.1645 0001289 118.6774 241.4348 15.08855330 37393,6917.834,95.437,540.59,538.807,0.0
54805.0,STARLINK-5417,PAYLOAD,2023-08-22 08:21:07,15.08838372,0.0001092,53.216,245.2987,86.8459,273.2658,2.8717e-05,1.69e-06,0.0,0 STARLINK-5417,1 54805U 22175AZ  23234.34800402  .00000169  00000-0  28717-4 0  9999,2 54805  53.2160 245.2987 0001092  86.8459 273.2658 15.08838372 37525,6917.885,95.438,540.506,538.995,0.0
54805.0,STARLINK-5417,PAYLOAD,2023-08-23 09:47:17,15.08839989,0.0001106,53.2159,240.5402,81.4983,278.6135,1.1583e-05,-1.03e-06,0.0,0 STARLINK-5417,1 54805U 22175AZ  23235.40784384 -.00000103  00000-0  11583-4 0  9999,2 54805  53.2159 240.5402 0001106  81.4983 278.6135 15.08839989 37683,6917.88,95.438,540.511,538.98,0.0
54805.0,STARLINK-5417,PAYLOAD,2023-08-24 09:38:05,15.08838394,0.0001112,53.2157,236.079,86.7214,273.3905,-2.5577e-05,-6.95e-06,0.0,0 STARLINK-5417,1 54805U 22175AZ  23236.40144731 -.00000695  00000-0 -25577-4 0  9991,2 54805  53.2157 236.0790 0001112  86.7214 273.3905 15.08838394 37836,6917.885,95.438,540.52,538.981,0.0
54805.0,STARLINK-5417,PAYLOAD,2023-08-25 11:04:14,15.0884243,0.0001165,53.2155,231.3211,85.8786,274.234,5.167e-05,5.35e-06,0.0,0 STARLINK-5417,1 54805U 22175AZ  23237.46128167  .00000535  00000-0  51670-4 0  9997,2 54805  53.2155 231.3211 0001165  85.8786 274.2340 15.08842430 40150,6917.873,95.437,540.544,538.932,0.0
54805.0,STARLINK-5417,PAYLOAD,2023-08-26 09:19:38,15.08839208,0.0001216,53.2158,227.1573,94.4242,265.6889,3.4046e-05,2.54e-06,0.0,0 STARLINK-5417,1 54805U 22175AZ  23238.38864417  .00000254  00000-0  34046-4 0  9990,2 54805  53.2158 227.1573 0001216  94.4242 265.6889 15.08839208 40293,6917.883,95.438,540.589,538.907,0.0
54805.0,STARLINK-5417,PAYLOAD,2023-08-27 04:24:16,15.08838761,0.0001314,53.2162,223.5881,103.5573,256.5565,-2.3719e-05,-6.65e-06,0.0,0 STARLINK-5417,1 54805U 22175AZ  23239.18352661 -.00000665  00000-0 -23719-4 0  9995,2 54805  53.2162 223.5881 0001314 103.5573 256.5565 15.08838761 40415,6917.884,95.438,540.658,538.84,0.0
54805.0,STARLINK-5417,PAYLOAD,2023-08-27 09:10:25,15.0884238,0.0001246,53.2159,222.6968,96.0657,264.0477,2.2988e-06,-2.51e-06,0.0,0 STARLINK-5417,1 54805U 22175AZ  23239.38224351 -.00000251  00000-0  22988-5 0  9999,2 54805  53.2159 222.6968 0001246  96.0657 264.0477 15.08842380 40441,6917.873,95.437,540.6,538.876,0.0
54805.0,STARLINK-5417,PAYLOAD,2023-08-27 23:28:54,15.08832172,0.0001385,53.2167,220.0211,105.1569,254.9576,-3.5092e-05,-8.46e-06,0.0,0 STARLINK-5417,1 54805U 22175AZ  23239.97841229 -.00000846  00000-0 -35092-4 0  9993,2 54805  53.2167 220.0211 0001385 105.1569 254.9576 15.08832172 38376,6917.904,95.438,540.727,538.811,0.0
54805.0,STARLINK-5417,PAYLOAD,2023-08-28 21:44:18,15.08832765,0.0001308,53.2164,215.8589,91.2305,268.8836,-7.8926e-06,-4.13e-06,0.0,0 STARLINK-5417,1 54805U 22175AZ  23240.90577440 -.00000413  00000-0 -78926-5 0  9993,2 54805  53.2164 215.8589 0001308  91.2305 268.8836 15.08832765 40678,6917.903,95.438,540.672,538.863,0.0
54805.0,STARLINK-5417,PAYLOAD,2023-08-29 07:16:37,15.08857651,0.000126,53.2165,214.075,100.5665,259.5469,-0.00021614,-3.728e-05,0.0,0 STARLINK-5417,1 54805U 22175AZ  23241.30320801 -.00003728  00000-0 -21614-3 0  9997,2 54805  53.2165 214.0750 0001260 100.5665 259.5469 15.08857651 38576,6917.826,95.436,540.563,538.82,0.0
54805.0,STARLINK-5417,PAYLOAD,2023-08-29 15:13:33,15.08836867,0.0001382,53.2166,212.5882,87.5838,272.5312,-1.4041e-05,-5.11e-06,0.0,0 STARLINK-5417,1 54805U 22175AZ  23241.63441396 -.00000511  00000-0 -14041-4 0  9990,2 54805  53.2166 212.5882 0001382  87.5838 272.5312 15.08836867 38621,6917.89,95.438,540.711,538.799,0.0
54805.0,STARLINK-5417,PAYLOAD,2023-08-30 15:04:20,15.0883571,0.0001398,53.2166,208.1276,85.9311,274.1841,2.3138e-05,8e-07,0.0,0 STARLINK-5417,1 54805U 22175AZ  23242.62801690  .00000080  00000-0  23138-4 0  9993,2 54805  53.2166 208.1276 0001398  85.9311 274.1841 15.08835710 40932,6917.894,95.438,540.726,538.791,0.0
54805.0,STARLINK-5417,PAYLOAD,2023-08-31 00:36:39,15.08835323,0.0001447,53.2167,206.3428,86.9878,273.1279,5.5716e-05,5.99e-06,0.0,0 STARLINK-5417,1 54805U 22175AZ  23243.02545675  .00000599  00000-0  55716-4 0  9998,2 54805  53.2167 206.3428 0001447  86.9878 273.1279 15.08835323 38836,6917.895,95.438,540.761,538.759,0.0
54805.0,STARLINK-5417,PAYLOAD,2023-08-31 03:47:25,15.08841588,0.0001419,53.2169,205.7497,87.7172,272.3983,5.5316e-05,5.93e-06,0.0,0 STARLINK-5417,1 54805U 22175AZ  23243.15793271  .00000593  00000-0  55316-4 0  9999,2 54805  53.2169 205.7497 0001419  87.7172 272.3983 15.08841588 38857,6917.876,95.437,540.722,538.759,0.0
54805.0,STARLINK-5417,PAYLOAD,2023-09-01 14:45:54,15.08839336,0.0001136,53.2164,199.2071,92.4363,267.6759,8.8588e-06,-1.47e-06,0.0,0 STARLINK-5417,1 54805U 22175AZ  23244.61521434 -.00000147  00000-0  88588-5 0  9995,2 54805  53.2164 199.2071 0001136  92.4363 267.6759 15.08839336 39079,6917.882,95.438,540.533,538.962,0.0
54805.0,STARLINK-5417,PAYLOAD,2023-09-01 21:07:27,15.08834087,8.47e-05,53.2183,198.0183,75.9426,284.1661,6.0697e-05,6.78e-06,0.0,0 STARLINK-5417,1 54805U 22175AZ  23244.88017534  .00000678  00000-0  60697-4 0  9993,2 54805  53.2183 198.0183 0000847  75.9426 284.1661 15.08834087 41274,6917.898,95.438,540.349,539.178,0.0
54805.0,STARLINK-5417,PAYLOAD,2023-09-02 20:58:14,15.08837499,0.0001351,53.2167,193.5565,87.0799,273.0348,3.7696e-06,-2.28e-06,0.0,0 STARLINK-5417,1 54805U 22175AZ  23245.87377599 -.00000228  00000-0  37696-5 0  9999,2 54805  53.2167 193.5565 0001351  87.0799 273.0348 15.08837499 41424,6917.888,95.438,540.688,538.818,0.0
